CTC2_L_00046001-01
1 79301U 23940XB  26070.40842593  .00000000  00000+0  00000-0 0  9997
2 79301  40.0000   0.0000 0000000   0.0000   0.0000 15.48880433    11
CTC2_L_00046001-02
1 79302U 23016YO  26070.40842593  .00000000  00000+0  00000-0 0  9992
2 79302  40.0000   0.0000 0000000   0.0000  90.0000 15.48880433    11
CTC2_L_00046001-03
1 79303U 23398MH  26070.40842593  .00000000  00000+0  00000-0 0  9996
2 79303  40.0000   0.0000 0000000   0.0000 180.0000 15.48880433    12
CTC2_L_00046001-04
1 79304U 25793NH  26070.40842593  .00000000  00000+0  00000-0 0  9998
2 79304  40.0000   0.0000 0000000   0.0000 270.0000 15.48880433    13
CTC2_L_00046002-01
1 79305U 23065QH  26070.40842593  .00000000  00000+0  00000-0 0  9999
2 79305  40.0000  12.0000 0000000   0.0000  12.0000 15.48880433    11
CTC2_L_00046002-02
1 79306U 25434XE  26070.40842593  .00000000  00000+0  00000-0 0  9992
2 79306  40.0000  12.0000 0000000   0.0000 102.0000 15.48880433    12
CTC2_L_00046002-03
1 79307U 23981WD  26070.40842593  .00000000  00000+0  00000-0 0  9998
2 79307  40.0000  12.0000 0000000   0.0000 192.0000 15.48880433    12
CTC2_L_00046002-04
1 79308U 26411WG  26070.40842593  .00000000  00000+0  00000-0 0  9990
2 79308  40.0000  12.0000 0000000   0.0000 282.0000 15.48880433    13
CTC2_L_00046003-01
1 79309U 25383OF  26070.40842593  .00000000  00000+0  00000-0 0  9998
2 79309  40.0000  24.0000 0000000   0.0000  24.0000 15.48880433    11
CTC2_L_00046003-02
1 79310U 22926GK  26070.40842593  .00000000  00000+0  00000-0 0  9990
2 79310  40.0000  24.0000 0000000   0.0000 114.0000 15.48880433    13
CTC2_L_00046003-03
1 79311U 24088AD  26070.40842593  .00000000  00000+0  00000-0 0  9992
2 79311  40.0000  24.0000 0000000   0.0000 204.0000 15.48880433    14
CTC2_L_00046003-04
1 79312U 26399NW  26070.40842593  .00000000  00000+0  00000-0 0  9990
2 79312  40.0000  24.0000 0000000   0.0000 294.0000 15.48880433    14
CTC2_L_00046004-01
1 79313U 23651UX  26070.40842593  .00000000  00000+0  00000-0 0  9999
2 79313  40.0000  36.0000 0000000   0.0000  36.0000 15.48880433    12
CTC2_L_00046004-02
1 79314U 25557PF  26070.40842593  .00000000  00000+0  00000-0 0  9997
2 79314  40.0000  36.0000 0000000   0.0000 126.0000 15.48880433    13
CTC2_L_00046004-03
1 79315U 23188ON  26070.40842593  .00000000  00000+0  00000-0 0  9996
2 79315  40.0000  36.0000 0000000   0.0000 216.0000 15.48880433    14
CTC2_L_00046004-04
1 79316U 24521XB  26070.40842593  .00000000  00000+0  00000-0 0  9999
2 79316  40.0000  36.0000 0000000   0.0000 306.0000 15.48880433    15
CTC2_L_00046005-01
1 79317U 25460KP  26070.40842593  .00000000  00000+0  00000-0 0  9993
2 79317  40.0000  48.0000 0000000   0.0000  48.0000 15.48880433    12
CTC2_L_00046005-02
1 79318U 24239HY  26070.40842593  .00000000  00000+0  00000-0 0  9997
2 79318  40.0000  48.0000 0000000   0.0000 138.0000 15.48880433    13
CTC2_L_00046005-03
1 79319U 23666WE  26070.40842593  .00000000  00000+0  00000-0 0  9991
2 79319  40.0000  48.0000 0000000   0.0000 228.0000 15.48880433    14
CTC2_L_00046005-04
1 79320U 25537YF  26070.40842593  .00000000  00000+0  00000-0 0  9992
2 79320  40.0000  48.0000 0000000   0.0000 318.0000 15.48880433    16
CTC2_L_00046006-01
1 79321U 24905QX  26070.40842593  .00000000  00000+0  00000-0 0  9991
2 79321  40.0000  60.0000 0000000   0.0000  60.0000 15.48880433    15
CTC2_L_00046006-02
1 79322U 22439XH  26070.40842593  .00000000  00000+0  00000-0 0  9992
2 79322  40.0000  60.0000 0000000   0.0000 150.0000 15.48880433    16
CTC2_L_00046006-03
1 79323U 22938YM  26070.40842593  .00000000  00000+0  00000-0 0  9997
2 79323  40.0000  60.0000 0000000   0.0000 240.0000 15.48880433    17
CTC2_L_00046006-04
1 79324U 26132DD  26070.40842593  .00000000  00000+0  00000-0 0  9998
2 79324  40.0000  60.0000 0000000   0.0000 330.0000 15.48880433    18
CTC2_L_00046007-01
1 79325U 26775SY  26070.40842593  .00000000  00000+0  00000-0 0  9992
2 79325  40.0000  72.0000 0000000   0.0000  72.0000 15.48880433    15
CTC2_L_00046007-02
1 79326U 22013AP  26070.40842593  .00000000  00000+0  00000-0 0  9994
2 79326  40.0000  72.0000 0000000   0.0000 162.0000 15.48880433    16
CTC2_L_00046007-03
1 79327U 24516IB  26070.40842593  .00000000  00000+0  00000-0 0  9995
2 79327  40.0000  72.0000 0000000   0.0000 252.0000 15.48880433    17
CTC2_L_00046007-04
1 79328U 24699MQ  26070.40842593  .00000000  00000+0  00000-0 0  9998
2 79328  40.0000  72.0000 0000000   0.0000 342.0000 15.48880433    18
CTC2_L_00046008-01
1 79329U 25741NZ  26070.40842593  .00000000  00000+0  00000-0 0  9998
2 79329  40.0000  84.0000 0000000   0.0000  84.0000 15.48880433    15
CTC2_L_00046008-02
1 79330U 22755FH  26070.40842593  .00000000  00000+0  00000-0 0  9992
2 79330  40.0000  84.0000 0000000   0.0000 174.0000 15.48880433    17
CTC2_L_00046008-03
1 79331U 24244HB  26070.40842593  .00000000  00000+0  00000-0 0  9998
2 79331  40.0000  84.0000 0000000   0.0000 264.0000 15.48880433    18
CTC2_L_00046008-04
1 79332U 26753UT  26070.40842593  .00000000  00000+0  00000-0 0  9996
2 79332  40.0000  84.0000 0000000   0.0000 354.0000 15.48880433    19
CTC2_L_00046009-01
1 79333U 22853AS  26070.40842593  .00000000  00000+0  00000-0 0  9994
2 79333  40.0000  96.0000 0000000   0.0000  96.0000 15.48880433    16
CTC2_L_00046009-02
1 79334U 22323ES  26070.40842593  .00000000  00000+0  00000-0 0  9997
2 79334  40.0000  96.0000 0000000   0.0000 186.0000 15.48880433    17
CTC2_L_00046009-03
1 79335U 25446VU  26070.40842593  .00000000  00000+0  00000-0 0  9997
2 79335  40.0000  96.0000 0000000   0.0000 276.0000 15.48880433    18
CTC2_L_00046009-04
1 79336U 23718GX  26070.40842593  .00000000  00000+0  00000-0 0  9998
2 79336  40.0000  96.0000 0000000   0.0000   6.0000 15.48880433    10
CTC2_L_00046010-01
1 79337U 22060N   26070.40842593  .00000000  00000+0  00000-0 0  9998
2 79337  40.0000 108.0000 0000000   0.0000 108.0000 15.48880433    18
CTC2_L_00046010-02
1 79338U 26912AD  26070.40842593  .00000000  00000+0  00000-0 0  9999
2 79338  40.0000 108.0000 0000000   0.0000 198.0000 15.48880433    18
CTC2_L_00046010-03
1 79339U 25168BQ  26070.40842593  .00000000  00000+0  00000-0 0  9992
2 79339  40.0000 108.0000 0000000   0.0000 288.0000 15.48880433    19
CTC2_L_00046010-04
1 79340U 25836KG  26070.40842593  .00000000  00000+0  00000-0 0  9996
2 79340  40.0000 108.0000 0000000   0.0000  18.0000 15.48880433    12
CTC2_L_00046011-01
1 79341U 22012DS  26070.40842593  .00000000  00000+0  00000-0 0  9990
2 79341  40.0000 120.0000 0000000   0.0000 120.0000 15.48880433    11
CTC2_L_00046011-02
1 79342U 24494IP  26070.40842593  .00000000  00000+0  00000-0 0  9997
2 79342  40.0000 120.0000 0000000   0.0000 210.0000 15.48880433    12
CTC2_L_00046011-03
1 79343U 26217VR  26070.40842593  .00000000  00000+0  00000-0 0  9993
2 79343  40.0000 120.0000 0000000   0.0000 300.0000 15.48880433    13
CTC2_L_00046011-04
1 79344U 26072N   26070.40842593  .00000000  00000+0  00000-0 0  9993
2 79344  40.0000 120.0000 0000000   0.0000  30.0000 15.48880433    14
CTC2_L_00046012-01
1 79345U 22464EV  26070.40842593  .00000000  00000+0  00000-0 0  9995
2 79345  40.0000 132.0000 0000000   0.0000 132.0000 15.48880433    11
CTC2_L_00046012-02
1 79346U 24430VK  26070.40842593  .00000000  00000+0  00000-0 0  9991
2 79346  40.0000 132.0000 0000000   0.0000 222.0000 15.48880433    12
CTC2_L_00046012-03
1 79347U 22293SX  26070.40842593  .00000000  00000+0  00000-0 0  9997
2 79347  40.0000 132.0000 0000000   0.0000 312.0000 15.48880433    13
CTC2_L_00046012-04
1 79348U 23876GV  26070.40842593  .00000000  00000+0  00000-0 0  9996
2 79348  40.0000 132.0000 0000000   0.0000  42.0000 15.48880433    14
CTC2_L_00046013-01
1 79349U 22330GR  26070.40842593  .00000000  00000+0  00000-0 0  9991
2 79349  40.0000 144.0000 0000000   0.0000 144.0000 15.48880433    11
CTC2_L_00046013-02
1 79350U 25408BX  26070.40842593  .00000000  00000+0  00000-0 0  9992
2 79350  40.0000 144.0000 0000000   0.0000 234.0000 15.48880433    13
CTC2_L_00046013-03
1 79351U 26806KU  26070.40842593  .00000000  00000+0  00000-0 0  9996
2 79351  40.0000 144.0000 0000000   0.0000 324.0000 15.48880433    14
CTC2_L_00046013-04
1 79352U 24763TE  26070.40842593  .00000000  00000+0  00000-0 0  9997
2 79352  40.0000 144.0000 0000000   0.0000  54.0000 15.48880433    15
CTC2_L_00046014-01
1 79353U 23293XN  26070.40842593  .00000000  00000+0  00000-0 0  9995
2 79353  40.0000 156.0000 0000000   0.0000 156.0000 15.48880433    12
CTC2_L_00046014-02
1 79354U 26939TE  26070.40842593  .00000000  00000+0  00000-0 0  9996
2 79354  40.0000 156.0000 0000000   0.0000 246.0000 15.48880433    13
CTC2_L_00046014-03
1 79355U 22702RP  26070.40842593  .00000000  00000+0  00000-0 0  9991
2 79355  40.0000 156.0000 0000000   0.0000 336.0000 15.48880433    14
CTC2_L_00046014-04
1 79356U 22343MD  26070.40842593  .00000000  00000+0  00000-0 0  9993
2 79356  40.0000 156.0000 0000000   0.0000  66.0000 15.48880433    15
CTC2_L_00046015-01
1 79357U 22382EZ  26070.40842593  .00000000  00000+0  00000-0 0  9997
2 79357  40.0000 168.0000 0000000   0.0000 168.0000 15.48880433    12
CTC2_L_00046015-02
1 79358U 22848PA  26070.40842593  .00000000  00000+0  00000-0 0  9995
2 79358  40.0000 168.0000 0000000   0.0000 258.0000 15.48880433    13
CTC2_L_00046015-03
1 79359U 24061RJ  26070.40842593  .00000000  00000+0  00000-0 0  9995
2 79359  40.0000 168.0000 0000000   0.0000 348.0000 15.48880433    14
CTC2_L_00046015-04
1 79360U 22815KN  26070.40842593  .00000000  00000+0  00000-0 0  9992
2 79360  40.0000 168.0000 0000000   0.0000  78.0000 15.48880433    16
CTC2_L_00046016-01
1 79361U 24871YI  26070.40842593  .00000000  00000+0  00000-0 0  9997
2 79361  40.0000 180.0000 0000000   0.0000 180.0000 15.48880433    15
CTC2_L_00046016-02
1 79362U 24046YW  26070.40842593  .00000000  00000+0  00000-0 0  9992
2 79362  40.0000 180.0000 0000000   0.0000 270.0000 15.48880433    16
